METAR SBGR 252100Z 08004KT CAVOK 22/15 Q1021=