METAR SBGR 252200Z 12003KT CAVOK 19/15 Q1022=